Satellite: AO-07
Catalog number: 07530
Epoch time:      08311.66830552
Element set:     320
Inclination:      101.4516 deg
RA of node:       338.3267 deg
Eccentricity:    0.0012092
Arg of perigee:   344.4776 deg
Mean anomaly:     015.5919 deg
Mean motion:   12.53574597 rev/day
Decay rate:       -2.7e-07 rev/day^2
Epoch rev:           55483
Checksum:              298

Satellite: AO-10
Catalog number: 14129
Epoch time:      08310.95014570
Element set:     585
Inclination:      026.0336 deg
RA of node:       187.3013 deg
Eccentricity:    0.5959059
Arg of perigee:   171.0813 deg
Mean anomaly:     207.7259 deg
Mean motion:   02.05868585 rev/day
Decay rate:       -1.3e-07 rev/day^2
Epoch rev:           19102
Checksum:              293

Satellite: UO-11
Catalog number: 14781
Epoch time:      08311.66931379
Element set:     806
Inclination:      098.1386 deg
RA of node:       347.7183 deg
Eccentricity:    0.0008916
Arg of perigee:   341.5270 deg
Mean anomaly:     018.5655 deg
Mean motion:   14.79674301 rev/day
Decay rate:        9.2e-07 rev/day^2
Epoch rev:           32492
Checksum:              322

Satellite: RS-15
Catalog number: 23439
Epoch time:      08310.92047432
Element set:    0208
Inclination:      064.8155 deg
RA of node:       265.8549 deg
Eccentricity:    0.0145678
Arg of perigee:   095.3237 deg
Mean anomaly:     266.4326 deg
Mean motion:   11.27552554 rev/day
Decay rate:       -3.9e-07 rev/day^2
Epoch rev:           57094
Checksum:              323

Satellite: FO-29
Catalog number: 24278
Epoch time:      08310.74043917
Element set:    0910
Inclination:      098.5773 deg
RA of node:       208.4374 deg
Eccentricity:    0.0350327
Arg of perigee:   208.9759 deg
Mean anomaly:     149.1522 deg
Mean motion:   13.52940148 rev/day
Decay rate:        2.0e-07 rev/day^2
Epoch rev:           60353
Checksum:              309

Satellite: SO-33
Catalog number: 25509
Epoch time:      08310.94366043
Element set:    0319
Inclination:      031.4325 deg
RA of node:       234.8252 deg
Eccentricity:    0.0354826
Arg of perigee:   186.6973 deg
Mean anomaly:     172.8834 deg
Mean motion:   14.28233207 rev/day
Decay rate:       2.76e-06 rev/day^2
Epoch rev:           52389
Checksum:              316

Satellite: AO-40
Catalog number: 26609
Epoch time:      08310.48045755
Element set:    0149
Inclination:      008.0401 deg
RA of node:       050.8635 deg
Eccentricity:    0.7937936
Arg of perigee:   141.4229 deg
Mean anomaly:     317.4964 deg
Mean motion:   01.25587597 rev/day
Decay rate:      -2.72e-06 rev/day^2
Epoch rev:           03681
Checksum:              321

Satellite: VO-52
Catalog number: 28650
Epoch time:      08311.71464575
Element set:      75
Inclination:      097.7724 deg
RA of node:       014.2874 deg
Eccentricity:    0.0027862
Arg of perigee:   037.8722 deg
Mean anomaly:     322.4419 deg
Mean motion:   14.81516964 rev/day
Decay rate:       -6.2e-07 rev/day^2
Epoch rev:           18970
Checksum:              323

Satellite: PO-63
Catalog number: 29712
Epoch time:      08311.71928964
Element set:     946
Inclination:      097.8585 deg
RA of node:       007.1153 deg
Eccentricity:    0.0013224
Arg of perigee:   280.5083 deg
Mean anomaly:     079.4637 deg
Mean motion:   14.80325379 rev/day
Decay rate:       5.44e-06 rev/day^2
Epoch rev:            9855
Checksum:              333

/EX
SB KEPS @ AMSAT  $ORB08311.D
Orbital Elements  08311.MICROS

HR AMSAT ORBITAL ELEMENTS FOR THE MICROSATS
FROM WA5QGD FORT WORTH,TX November 6, 2008
Send Subscribe/unsubscribe to KEPS at 
http://www.amsat.org/mailman/listinfo/keps
BID: ORB08311.D
TO ALL RADIO AMATEURS BT

Satellite: AO-16
Catalog number: 20439
Epoch time:      08311.49125800
Element set:     457
Inclination:      098.2497 deg
RA of node:       284.4124 deg
Eccentricity:    0.0011742
Arg of perigee:   110.8067 deg
Mean anomaly:     249.4366 deg
Mean motion:   14.31807069 rev/day
Decay rate:       -7.0e-08 rev/day^2
Epoch rev:           98128
Checksum:              306

Satellite: LO-19
Catalog number: 20442
Epoch time:      08311.51500821
Element set:     381
Inclination:      098.2165 deg
RA of node:       292.5188 deg
Eccentricity:    0.0012751
Arg of perigee:   108.5688 deg
Mean anomaly:     251.6871 deg
Mean motion:   14.32044532 rev/day
Decay rate:       -5.8e-07 rev/day^2
Epoch rev:           98144
Checksum:              296

Satellite: AO-27
Catalog number: 22825
Epoch time:      08310.89514429
Element set:    0102
Inclination:      098.4061 deg
RA of node:       265.7377 deg
Eccentricity:    0.0007823
Arg of perigee:   198.0449 deg
Mean anomaly:     162.0458 deg
Mean motion:   14.29250935 rev/day
Decay rate:        5.9e-07 rev/day^2
Epoch rev:           78801
Checksum:              320

Satellite: IO-26
Catalog number: 22826
Epoch time:      08311.83442930
Element set:     814
Inclination:      098.3995 deg
RA of node:       267.4908 deg
Eccentricity:    0.0008524
Arg of perigee:   191.4855 deg
Mean anomaly:     168.6148 deg
Mean motion:   14.29500697 rev/day
Decay rate:       -1.0e-08 rev/day^2
Epoch rev:           78824
Checksum:              338

Satellite: GO-32
Catalog number: 25397
Epoch time:      08311.62267914
Element set:     740
Inclination:      098.3498 deg
RA of node:       339.6503 deg
Eccentricity:    0.0001479
Arg of perigee:   145.9813 deg
Mean anomaly:     214.1456 deg
Mean motion:   14.23150502 rev/day
Decay rate:        1.5e-07 rev/day^2
Epoch rev:           53647
Checksum:              302

Satellite: NO-44
Catalog number: 26931
Epoch time:      08310.40277788
Element set:    0019
Inclination:      067.0523 deg
RA of node:       280.8622 deg
Eccentricity:    0.0006978
Arg of perigee:   256.0393 deg
Mean anomaly:     103.9929 deg
Mean motion:   14.29537083 rev/day
Decay rate:      -1.81e-06 rev/day^2
Epoch rev:           37059
Checksum:              323

Satellite: SO-50
Catalog number: 27607
Epoch time:      08310.58206901
Element set:     739
Inclination:      064.5598 deg
RA of node:       344.2132 deg
Eccentricity:    0.0084952
Arg of perigee:   252.0040 deg
Mean anomaly:     107.1796 deg
Mean motion:   14.71392853 rev/day
Decay rate:        5.4e-07 rev/day^2
Epoch rev:           31577
Checksum:              303

Satellite: CO-55
Catalog number: 27844
Epoch time:      08311.71100859
Element set:     434
Inclination:      098.7160 deg
RA of node:       318.0105 deg
Eccentricity:    0.0010806
Arg of perigee:   066.8290 deg
Mean anomaly:     293.4019 deg
Mean motion:   14.20604772 rev/day
Decay rate:        3.5e-07 rev/day^2
Epoch rev:           27767
Checksum:              294

