DECODE 2-LINE ELSETS WITH THE FOLLOWING KEY:
1 AAAAAU 00  0  0 BBBBB.BBBBBBBB  .CCCCCCCC  00000-0  00000-0 0  DDDZ
2 AAAAA EEE.EEEE FFF.FFFF GGGGGGG HHH.HHHH III.IIII JJ.JJJJJJJJKKKKKZ
KEY: A-CATALOGNUM B-EPOCHTIME C-DECAY D-ELSETNUM E-INCLINATION F-RAAN
G-ECCENTRICITY H-ARGPERIGEE I-MNANOM J-MNMOTION K-ORBITNUM Z-CHECKSUM

TO ALL RADIO AMATEURS BT

AO-07
1 07530U 74089B   08311.66830552 -.00000027  00000-0  10000-3 0  3203
2 07530 101.4516 338.3267 0012092 344.4776 015.5919 12.53574597554839
AO-10
1 14129U 83058B   08310.95014570 -.00000013  00000-0  10000-3 0  5854
2 14129 026.0336 187.3013 5959059 171.0813 207.7259 02.05868585191027
UO-11
1 14781U 84021B   08311.66931379  .00000092  00000-0  19542-4 0  8066
2 14781 098.1386 347.7183 0008916 341.5270 018.5655 14.79674301324929
RS-15
1 23439U 94085A   08310.92047432 -.00000039  00000-0  10000-3 0 02080
2 23439 064.8155 265.8549 0145678 095.3237 266.4326 11.27552554570942
FO-29
1 24278U 96046B   08310.74043917  .00000020  00000-0  57393-4 0 09101
2 24278 098.5773 208.4374 0350327 208.9759 149.1522 13.52940148603530
SO-33
1 25509U 98061B   08310.94366043  .00000276  00000-0  41231-4 0 03198
2 25509 031.4325 234.8252 0354826 186.6973 172.8834 14.28233207523897
AO-40
1 26609U 00072B   08310.48045755 -.00000272  00000-0  10000-3 0 01495
2 26609 008.0401 050.8635 7937936 141.4229 317.4964 01.25587597036813
VO-52
1 28650U 05017B   08311.71464575 -.00000062  00000-0 -12659-5 0   759
2 28650 097.7724 014.2874 0027862 037.8722 322.4419 14.81516964189704
PO-63
1 29712U 07001D   08311.71928964  .00000544  00000-0  78029-4 0  9463
2 29712 097.8585 007.1153 0013224 280.5083 079.4637 14.80325379 98555
AO-16
1 20439U 90005D   08311.49125800 -.00000007  00000-0  12621-4 0  4577
2 20439 098.2497 284.4124 0011742 110.8067 249.4366 14.31807069981283
LO-19
1 20442U 90005G   08311.51500821 -.00000058  00000-0 -64646-5 0  3812
2 20442 098.2165 292.5188 0012751 108.5688 251.6871 14.32044532981446
AO-27
1 22825U 93061C   08310.89514429  .00000059  00000-0  39722-4 0 01029
2 22825 098.4061 265.7377 0007823 198.0449 162.0458 14.29250935788011
IO-26
1 22826U 93061D   08311.83442930 -.00000001  00000-0  16163-4 0  8144
2 22826 098.3995 267.4908 0008524 191.4855 168.6148 14.29500697788249
GO-32
1 25397U 98043D   08311.62267914  .00000015  00000-0  24619-4 0  7406
2 25397 098.3498 339.6503 0001479 145.9813 214.1456 14.23150502536471
NO-44
1 26931U 01043C   08310.40277788 -.00000181  00000-0 -38315-4 0 00193
2 26931 067.0523 280.8622 0006978 256.0393 103.9929 14.29537083370591
SO-50
1 27607U 02058C   08310.58206901  .00000054  00000-0  30353-4 0  7399
2 27607 064.5598 344.2132 0084952 252.0040 107.1796 14.71392853315778
CO-55
1 27844U 03031E   08311.71100859  .00000035  00000-0  36764-4 0  4348
2 27844 098.7160 318.0105 0010806 066.8290 293.4019 14.20604772277672
